{"spkid": "50274512", "covariance": {"labels": ["e", "q", "tp", "node", "peri", "i"], "data": [["9.688427632839461E-15", "-1.713493412572762E-14", "1.097519546849713E-12", "-3.159180407982931E-12", "5.146843321777732E-12", "-6.461787955432616E-13"], ["-1.713493412572762E-14", "3.030493650917804E-14", "-1.93733687213095E-12", "5.58113830004299E-12", "-9.092871225740626E-12", "1.143757030514324E-12"], ["1.097519546849713E-12", "-1.93733687213095E-12", "2.843378939122233E-10", "-6.200563198476407E-10", "1.005784391665822E-9", "-3.709605058629866E-11"], ["-3.159180407982931E-12", "5.58113830004299E-12", "-6.200563198476407E-10", "2.295508627214578E-9", "-3.205722455322793E-9", "1.954075670694761E-10"], ["5.146843321777732E-12", "-9.092871225740626E-12", "1.005784391665822E-9", "-3.205722455322793E-9", "4.688083421750357E-9", "-2.930935205366379E-10"], ["-6.461787955432616E-13", "1.143757030514324E-12", "-3.709605058629866E-11", "1.954075670694761E-10", "-2.930935205366379E-10", "8.554177280243421E-11"]], "elements": [{"label": "e", "name": "e", "sigma": 9.84298106918806e-08, "units": null, "title": "eccentricity", "value": ".5401509830378374"}, {"sigma": 1.74083131029914e-07, "name": "q", "units": "au", "value": ".8062115179419764", "title": "perihelion distance", "label": "q"}, {"units": "TDB", "value": "2458482.219550742577", "title": "time of perihelion passage", "sigma": 1.68623217236602e-05, "name": "tp", "label": "tp"}, {"label": "node", "sigma": 4.79114665525339e-05, "name": "om", "units": "deg", "title": "longitude of the ascending node", "value": "5.527127191497745"}, {"label": "peri", "title": "argument of perihelion", "value": "98.05867094429298", "units": "deg", "sigma": 6.84695802656213e-05, "name": "w"}, {"name": "i", "sigma": 9.24887954308165e-06, "title": "inclination", "value": "3.932138535107166", "units": "deg", "label": "i"}], "epoch": "2458444.5"}, "elements": [{"sigma": "9.957E-8", "name": "e", "units": null, "value": ".540331298601093", "title": "eccentricity", "label": "e"}, {"label": "a", "sigma": "3.5637E-9", "name": "a", "value": "1.752602078209827", "title": "semi-major axis", "units": "au"}, {"label": "q", "name": "q", "sigma": "1.7569E-7", "units": "au", "title": "perihelion distance", "value": ".8056163213597369"}, {"label": "i", "value": "3.919347670600294", "title": "inclination; angle with respect to x-y ecliptic plane", "units": "deg", "name": "i", "sigma": "9.2713E-6"}, {"label": "node", "title": "longitude of the ascending node", "value": "5.123540563184315", "units": "deg", "sigma": "4.8192E-5", "name": "om"}, {"label": "peri", "sigma": "6.8715E-5", "name": "w", "units": "deg", "title": "argument of perihelion", "value": "98.55911131429504"}, {"title": "mean anomaly", "value": "74.07905467829276", "units": "deg", "name": "ma", "sigma": "5.9709E-6", "label": "M"}, {"label": "tp", "units": "TDB", "title": "time of perihelion passage", "value": "2461026.112102645157", "name": "tp", "sigma": "1.3981E-5"}, {"units": "d", "value": "847.4681989447649", "title": "sidereal orbital period", "sigma": "2.5848E-6", "name": "per", "label": "period"}, {"sigma": "1.2957E-9", "name": "n", "units": "deg/d", "value": ".4247947007902577", "title": "mean motion", "label": "n"}, {"label": "Q", "sigma": "5.4893E-9", "name": "ad", "units": "au", "value": "2.699587835059917", "title": "aphelion distance"}], "epoch": "2461200.5"}